[{"OBJECT_NAME":"STARLINK-35889","OBJECT_ID":"2025-303AC","EPOCH":"2026-03-09T23:14:27.235392","MEAN_MOTION":15.2758588,"ECCENTRICITY":7.669e-5,"INCLINATION":43,"RA_OF_ASC_NODE":309.4949,"ARG_OF_PERICENTER":265.206,"MEAN_ANOMALY":94.8704,"EPHEMERIS_TYPE":0,"CLASSIFICATION_TYPE":"U","NORAD_CAT_ID":67189,"ELEMENT_SET_NO":999,"REV_AT_EPOCH":1277,"BSTAR":0.0013174817,"MEAN_MOTION_DOT":0.00036176,"MEAN_MOTION_DDOT":0},{"OBJECT_NAME":"PUCP-SAT 1","OBJECT_ID":"2013-066AC","EPOCH":"2026-03-09T22:02:13.763904","MEAN_MOTION":15.29426022,"ECCENTRICITY":0.00136836,"INCLINATION":97.5787,"RA_OF_ASC_NODE":61.0032,"ARG_OF_PERICENTER":300.1183,"MEAN_ANOMALY":59.87,"EPHEMERIS_TYPE":0,"CLASSIFICATION_TYPE":"U","NORAD_CAT_ID":39442,"ELEMENT_SET_NO":999,"REV_AT_EPOCH":66907,"BSTAR":0.00088755185,"MEAN_MOTION_DOT":0.00025373,"MEAN_MOTION_DDOT":0}]
